{"type": "FeatureCollection", "features": [ {"type": "Feature", "properties": {"norad_id": 44543, "name": "BEIDOU-3 M23 (C45)", "group": "beidou", "lat": -49.063699633201196, "lon": 64.47408879873879, "alt_km": 21546.127830873596, "timestamp": "2025-12-20T09:36:01.911017+00:00", "meta": {"OBJECT_NAME": "BEIDOU-3 M23 (C45)", "OBJECT_ID": "2019-061B", "EPOCH": "2025-12-19T04:54:38.810304", "MEAN_MOTION": 1.86227724, "ECCENTRICITY": 0.0006055, "INCLINATION": 54.3992, "RA_OF_ASC_NODE": 188.7663, "ARG_OF_PERICENTER": 24.9207, "MEAN_ANOMALY": 142.055, "EPHEMERIS_TYPE": 0, "CLASSIFICATION_TYPE": "U", "NORAD_CAT_ID": 44543, "ELEMENT_SET_NO": 999, "REV_AT_EPOCH": 4244, "BSTAR": 0, "MEAN_MOTION_DOT": 1.04e-06, "MEAN_MOTION_DDOT": 0}, "tle": {"line1": "1 44543U 19061B   25353.20461586  .00000104  00000+0  00000+0 0  9990", "line2": "2 44543  54.3992 188.7663 0006055  24.9207 142.0550  1.86227724 42443"}}, "geometry": {"type": "Point", "coordinates": [64.47408879873879, -49.063699633201196]}}, {"type": "Feature", "properties": {"norad_id": 44793, "name": "BEIDOU-3 M22 (C44)", "group": "beidou", "lat": 53.524698924249684, "lon": 24.257030392991926, "alt_km": 21512.932240849354, "timestamp": "2025-12-20T09:36:01.911029+00:00", "meta": {"OBJECT_NAME": "BEIDOU-3 M22 (C44)", "OBJECT_ID": "2019-078A", "EPOCH": "2025-12-19T04:51:35.344224", "MEAN_MOTION": 1.86232161, "ECCENTRICITY": 0.0006038, "INCLINATION": 54.1023, "RA_OF_ASC_NODE": 306.1592, "ARG_OF_PERICENTER": 24.3104, "MEAN_ANOMALY": 335.7082, "EPHEMERIS_TYPE": 0, "CLASSIFICATION_TYPE": "U", "NORAD_CAT_ID": 44793, "ELEMENT_SET_NO": 999, "REV_AT_EPOCH": 4129, "BSTAR": 0, "MEAN_MOTION_DOT": -7.7e-07, "MEAN_MOTION_DDOT": 0}, "tle": {"line1": "1 44793U 19078A   25353.20249241 -.00000077  00000+0  00000+0 0  9997", "line2": "2 44793  54.1023 306.1592 0006038  24.3104 335.7082  1.86232161 41295"}}, "geometry": {"type": "Point", "coordinates": [24.257030392991926, 53.524698924249684]}}, {"type": "Feature", "properties": {"norad_id": 44794, "name": "BEIDOU-3 M21 (C43)", "group": "beidou", "lat": -7.716186128201281, "lon": -59.574019185948735, "alt_km": 21518.945987132356, "timestamp": "2025-12-20T09:36:01.911040+00:00", "meta": {"OBJECT_NAME": "BEIDOU-3 M21 (C43)", "OBJECT_ID": "2019-078B", "EPOCH": "2025-12-16T15:43:55.727904", "MEAN_MOTION": 1.86227668, "ECCENTRICITY": 0.00041169, "INCLINATION": 54.078, "RA_OF_ASC_NODE": 306.2132, "ARG_OF_PERICENTER": 11.942, "MEAN_ANOMALY": 348.0544, "EPHEMERIS_TYPE": 0, "CLASSIFICATION_TYPE": "U", "NORAD_CAT_ID": 44794, "ELEMENT_SET_NO": 999, "REV_AT_EPOCH": 4125, "BSTAR": 0, "MEAN_MOTION_DOT": -9.5e-07, "MEAN_MOTION_DDOT": 0}, "tle": {"line1": "1 44794U 19078B   25350.65550611 -.00000095  00000+0  00000+0 0  9990", "line2": "2 44794  54.0780 306.2132 0004116  11.9420 348.0544  1.86227668 41256"}}, "geometry": {"type": "Point", "coordinates": [-59.574019185948735, -7.716186128201281]}}, {"type": "Feature", "properties": {"norad_id": 44864, "name": "BEIDOU-3 M19 (C41)", "group": "beidou", "lat": -5.081201964215051, "lon": -107.89111893074435, "alt_km": 21536.72050292941, "timestamp": "2025-12-20T09:36:01.911054+00:00", "meta": {"OBJECT_NAME": "BEIDOU-3 M19 (C41)", "OBJECT_ID": "2019-090A", "EPOCH": "2025-12-20T02:47:03.427296", "MEAN_MOTION": 1.8623162, "ECCENTRICITY": 0.0018287, "INCLINATION": 56.399, "RA_OF_ASC_NODE": 68.717, "ARG_OF_PERICENTER": 285.0022, "MEAN_ANOMALY": 70.8825, "EPHEMERIS_TYPE": 0, "CLASSIFICATION_TYPE": "U", "NORAD_CAT_ID": 44864, "ELEMENT_SET_NO": 999, "REV_AT_EPOCH": 4089, "BSTAR": 0, "MEAN_MOTION_DOT": -4.6e-07, "MEAN_MOTION_DDOT": 0}, "tle": {"line1": "1 44864U 19090A   25354.11601189 -.00000046  00000+0  00000+0 0  9990", "line2": "2 44864  56.3990  68.7170 0018287 285.0022  70.8825  1.86231620 40894"}}, "geometry": {"type": "Point", "coordinates": [-107.89111893074435, -5.081201964215051]}}, {"type": "Feature", "properties": {"norad_id": 44865, "name": "BEIDOU-3 M20 (C42)", "group": "beidou", "lat": -55.98038669852526, "lon": -10.77914609565012, "alt_km": 21493.83356656973, "timestamp": "2025-12-20T09:36:01.911069+00:00", "meta": {"OBJECT_NAME": "BEIDOU-3 M20 (C42)", "OBJECT_ID": "2019-090B", "EPOCH": "2025-12-19T13:23:47.716224", "MEAN_MOTION": 1.86231656, "ECCENTRICITY": 0.0015458, "INCLINATION": 56.4001, "RA_OF_ASC_NODE": 68.7697, "ARG_OF_PERICENTER": 297.1258, "MEAN_ANOMALY": 134.3818, "EPHEMERIS_TYPE": 0, "CLASSIFICATION_TYPE": "U", "NORAD_CAT_ID": 44865, "ELEMENT_SET_NO": 999, "REV_AT_EPOCH": 4087, "BSTAR": 0, "MEAN_MOTION_DOT": -5.2e-07, "MEAN_MOTION_DDOT": 0}, "tle": {"line1": "1 44865U 19090B   25353.55819116 -.00000052  00000+0  00000+0 0  9996", "line2": "2 44865  56.4001  68.7697 0015458 297.1258 134.3818  1.86231656 40870"}}, "geometry": {"type": "Point", "coordinates": [-10.77914609565012, -55.98038669852526]}}, {"type": "Feature", "properties": {"norad_id": 45344, "name": "BEIDOU-3 G2 (C60)", "group": "beidou", "lat": -2.529574729456388, "lon": -46.72113335549748, "alt_km": 35778.94643915793, "timestamp": "2025-12-20T09:36:01.911081+00:00", "meta": {"OBJECT_NAME": "BEIDOU-3 G2 (C60)", "OBJECT_ID": "2020-017A", "EPOCH": "2025-12-19T13:38:45.370752", "MEAN_MOTION": 1.00273166, "ECCENTRICITY": 0.0002079, "INCLINATION": 2.5096, "RA_OF_ASC_NODE": 44.0024, "ARG_OF_PERICENTER": 233.0917, "MEAN_ANOMALY": 96.0359, "EPHEMERIS_TYPE": 0, "CLASSIFICATION_TYPE": "U", "NORAD_CAT_ID": 45344, "ELEMENT_SET_NO": 999, "REV_AT_EPOCH": 2145, "BSTAR": 0, "MEAN_MOTION_DOT": -1.18e-06, "MEAN_MOTION_DDOT": 0}, "tle": {"line1": "1 45344U 20017A   25353.56858068 -.00000118  00000+0  00000+0 0  9993", "line2": "2 45344   2.5096  44.0024 0002079 233.0917  96.0359  1.00273166 21451"}}, "geometry": {"type": "Point", "coordinates": [-46.72113335549748, -2.529574729456388]}}, {"type": "Feature", "properties": {"norad_id": 45807, "name": "BEIDOU-3 G3 (C61)", "group": "beidou", "lat": -2.000712732193688, "lon": -16.222660477517238, "alt_km": 35763.8923362227, "timestamp": "2025-12-20T09:36:01.911092+00:00", "meta": {"OBJECT_NAME": "BEIDOU-3 G3 (C61)", "OBJECT_ID": "2020-040A", "EPOCH": "2025-12-19T15:57:04.317984", "MEAN_MOTION": 1.0027087, "ECCENTRICITY": 0.00064381, "INCLINATION": 2.0073, "RA_OF_ASC_NODE": 66.6426, "ARG_OF_PERICENTER": 309.3483, "MEAN_ANOMALY": 62.3662, "EPHEMERIS_TYPE": 0, "CLASSIFICATION_TYPE": "U", "NORAD_CAT_ID": 45807, "ELEMENT_SET_NO": 999, "REV_AT_EPOCH": 2027, "BSTAR": 0, "MEAN_MOTION_DOT": -3.31e-06, "MEAN_MOTION_DDOT": 0}, "tle": {"line1": "1 45807U 20040A   25353.66463331 -.00000331  00000+0  00000+0 0  9996", "line2": "2 45807   2.0073  66.6426 0006438 309.3483  62.3662  1.00270870 20270"}}, "geometry": {"type": "Point", "coordinates": [-16.222660477517238, -2.000712732193688]}}, {"type": "Feature", "properties": {"norad_id": 56564, "name": "BEIDOU-3 G4 (C62)", "group": "beidou", "lat": 0.8158008573208957, "lon": 33.26985179855119, "alt_km": 35794.23860953919, "timestamp": "2025-12-20T09:36:01.911104+00:00", "meta": {"OBJECT_NAME": "BEIDOU-3 G4 (C62)", "OBJECT_ID": "2023-066A", "EPOCH": "2025-12-19T19:36:37.155744", "MEAN_MOTION": 1.00271581, "ECCENTRICITY": 0.00027289, "INCLINATION": 0.8001, "RA_OF_ASC_NODE": 302.5987, "ARG_OF_PERICENTER": 226.497, "MEAN_ANOMALY": 13.7807, "EPHEMERIS_TYPE": 0, "CLASSIFICATION_TYPE": "U", "NORAD_CAT_ID": 56564, "ELEMENT_SET_NO": 999, "REV_AT_EPOCH": 959, "BSTAR": 0, "MEAN_MOTION_DOT": -8.6e-07, "MEAN_MOTION_DDOT": 0}, "tle": {"line1": "1 56564U 23066A   25353.81709671 -.00000086  00000+0  00000+0 0  9993", "line2": "2 56564   0.8001 302.5987 0002728 226.4970  13.7807  1.00271581  9594"}}, "geometry": {"type": "Point", "coordinates": [33.26985179855119, 0.8158008573208957]}}, {"type": "Feature", "properties": {"norad_id": 58654, "name": "BEIDOU-3 M28 (C50)", "group": "beidou", "lat": -46.748332218044574, "lon": 21.68707812998845, "alt_km": 21526.835178505597, "timestamp": "2025-12-20T09:36:01.911115+00:00", "meta": {"OBJECT_NAME": "BEIDOU-3 M28 (C50)", "OBJECT_ID": "2023-207A", "EPOCH": "2025-12-18T08:16:11.764704", "MEAN_MOTION": 1.86229821, "ECCENTRICITY": 0.00026501, "INCLINATION": 55.5892, "RA_OF_ASC_NODE": 68.4116, "ARG_OF_PERICENTER": 272.4264, "MEAN_ANOMALY": 87.5728, "EPHEMERIS_TYPE": 0, "CLASSIFICATION_TYPE": "U", "NORAD_CAT_ID": 58654, "ELEMENT_SET_NO": 999, "REV_AT_EPOCH": 1347, "BSTAR": 0, "MEAN_MOTION_DOT": -6.6e-07, "MEAN_MOTION_DDOT": 0}, "tle": {"line1": "1 58654U 23207A   25352.34458061 -.00000066  00000+0  00000+0 0  9991", "line2": "2 58654  55.5892  68.4116 0002650 272.4264  87.5728  1.86229821 13471"}}, "geometry": {"type": "Point", "coordinates": [21.68707812998845, -46.748332218044574]}}, {"type": "Feature", "properties": {"norad_id": 58655, "name": "BEIDOU-3 M26 (C48)", "group": "beidou", "lat": 52.39724835060073, "lon": 131.03002685539064, "alt_km": 21533.134266042212, "timestamp": "2025-12-20T09:36:01.911127+00:00", "meta": {"OBJECT_NAME": "BEIDOU-3 M26 (C48)", "OBJECT_ID": "2023-207B", "EPOCH": "2025-12-19T05:11:10.015296", "MEAN_MOTION": 1.86231346, "ECCENTRICITY": 0.0004042, "INCLINATION": 55.592, "RA_OF_ASC_NODE": 68.3684, "ARG_OF_PERICENTER": 258.4158, "MEAN_ANOMALY": 101.5732, "EPHEMERIS_TYPE": 0, "CLASSIFICATION_TYPE": "U", "NORAD_CAT_ID": 58655, "ELEMENT_SET_NO": 999, "REV_AT_EPOCH": 1347, "BSTAR": 0, "MEAN_MOTION_DOT": -5.7e-07, "MEAN_MOTION_DDOT": 0}, "tle": {"line1": "1 58655U 23207B   25353.21608814 -.00000057  00000+0  00000+0 0  9992", "line2": "2 58655  55.5920  68.3684 0004042 258.4158 101.5732  1.86231346 13473"}}, "geometry": {"type": "Point", "coordinates": [131.03002685539064, 52.39724835060073]}}]}